CYGNUS NG-23            
1 65616U 25208A   25350.08808596  .00006404  00000+0  12171-3 0  9998
2 65616  51.6306 125.8981 0003173 255.6781 104.3856 15.49613604   229
DRAGONFLY               
1 65729U 98067XH  25350.36069264  .00153726  00000+0  10798-2 0  9990
2 65729  51.6242 117.2037 0007066 301.2639  58.7667 15.73131629 13736
1998-067XK              
1 65731U 98067XK  25349.73336798  .00078692  00000+0  74239-3 0  9990
2 65731  51.6281 122.0366 0004812 264.6574  95.3872 15.66333624 13610
RSP-03                  
1 65732U 98067XL  25349.41416620  .00103156  00000+0  85709-3 0  9997
2 65732  51.6255 122.8946 0005630 270.0098  90.0254 15.69333488 13588
GHS-01                  
1 65733U 98067XM  25349.73472232  .00180872  00000+0  11102-2 0  9999
2 65733  51.6274 119.7831 0007599 301.7085  58.3173 15.76152522 13653
YOTSUBA-KULOVER         
1 65941U 98067XN  25350.36471500  .00056217  00000+0  68479-3 0  9993
2 65941  51.6282 121.7508 0001469 292.0371  68.0466 15.59949944 10425
BOTAN                   
1 65942U 98067XP  25350.36201080  .00090028  00000+0  94318-3 0  9997
2 65942  51.6278 120.9830 0002853 270.5076  89.5591 15.63646784 10430
E-KAGAKU-1              
1 65943U 98067XQ  25349.66009928  .00052357  00000+0  64091-3 0  9994
2 65943  51.6292 125.2990 0001636 221.4661 138.6208 15.59851021 10310
HRC MONOBLOCK CAMERA    
1 66052U 98067XR  25349.93029392  .00030802  00000+0  46657-3 0  9992
2 66052  51.6289 125.5959 0002885 198.9504 161.1379 15.54370373  9338
HTV-X1                  
1 66174U 25241A   25350.08808596  .00006404  00000+0  12171-3 0  9995
2 66174  51.6306 125.8981 0003173 255.6781 104.3856 15.49613604   511
SZ-21 MODULE            
1 66515U 25246C   25350.05447227  .00022201  00000+0  24373-3 0  9996
2 66515  41.4775 355.8239 0006112 277.4076  82.6069 15.62659653  4969
SHENZHOU-22             
1 66645U 25272A   25350.30145476  .00017088  00000+0  21422-3 0  9997
2 66645  41.4684 355.0821 0007855  60.8888 299.2736 15.59326293263579
