CCSDS_OMM_VERS = 2.0
CREATION_DATE  = 
ORIGINATOR     = 

OBJECT_NAME    = CYGNUS NG-23
OBJECT_ID      = 2025-208A
CENTER_NAME    = EARTH
REF_FRAME      = TEME
TIME_SYSTEM    = UTC
MEAN_ELEMENT_THEORY = SGP/SGP4

EPOCH          = 2025-12-16T02:06:50.626944
MEAN_MOTION    = 15.49613604
ECCENTRICITY   = .00031739
INCLINATION    = 51.6306
RA_OF_ASC_NODE = 125.8981
ARG_OF_PERICENTER = 255.6781
MEAN_ANOMALY   = 104.3856

EPHEMERIS_TYPE = 0
CLASSIFICATION_TYPE = U
NORAD_CAT_ID   = 65616
ELEMENT_SET_NO = 999
REV_AT_EPOCH   = 22
BSTAR          = .12170727E-3
MEAN_MOTION_DOT = .6404E-4
MEAN_MOTION_DDOT = 0

CCSDS_OMM_VERS = 2.0
CREATION_DATE  = 
ORIGINATOR     = 

OBJECT_NAME    = DRAGONFLY
OBJECT_ID      = 1998-067XH
CENTER_NAME    = EARTH
REF_FRAME      = TEME
TIME_SYSTEM    = UTC
MEAN_ELEMENT_THEORY = SGP/SGP4

EPOCH          = 2025-12-16T08:39:23.844096
MEAN_MOTION    = 15.73131629
ECCENTRICITY   = .00070668
INCLINATION    = 51.6242
RA_OF_ASC_NODE = 117.2037
ARG_OF_PERICENTER = 301.2639
MEAN_ANOMALY   = 58.7667

EPHEMERIS_TYPE = 0
CLASSIFICATION_TYPE = U
NORAD_CAT_ID   = 65729
ELEMENT_SET_NO = 999
REV_AT_EPOCH   = 1373
BSTAR          = .10798452E-2
MEAN_MOTION_DOT = .153726E-2
MEAN_MOTION_DDOT = 0

CCSDS_OMM_VERS = 2.0
CREATION_DATE  = 
ORIGINATOR     = 

OBJECT_NAME    = 1998-067XK
OBJECT_ID      = 1998-067XK
CENTER_NAME    = EARTH
REF_FRAME      = TEME
TIME_SYSTEM    = UTC
MEAN_ELEMENT_THEORY = SGP/SGP4

EPOCH          = 2025-12-15T17:36:02.993472
MEAN_MOTION    = 15.66333624
ECCENTRICITY   = .00048129
INCLINATION    = 51.6281
RA_OF_ASC_NODE = 122.0366
ARG_OF_PERICENTER = 264.6574
MEAN_ANOMALY   = 95.3872

EPHEMERIS_TYPE = 0
CLASSIFICATION_TYPE = U
NORAD_CAT_ID   = 65731
ELEMENT_SET_NO = 999
REV_AT_EPOCH   = 1361
BSTAR          = .74239237E-3
MEAN_MOTION_DOT = .78692E-3
MEAN_MOTION_DDOT = 0

CCSDS_OMM_VERS = 2.0
CREATION_DATE  = 
ORIGINATOR     = 

OBJECT_NAME    = RSP-03
OBJECT_ID      = 1998-067XL
CENTER_NAME    = EARTH
REF_FRAME      = TEME
TIME_SYSTEM    = UTC
MEAN_ELEMENT_THEORY = SGP/SGP4

EPOCH          = 2025-12-15T09:56:23.959680
MEAN_MOTION    = 15.69333488
ECCENTRICITY   = .00056309
INCLINATION    = 51.6255
RA_OF_ASC_NODE = 122.8946
ARG_OF_PERICENTER = 270.0098
MEAN_ANOMALY   = 90.0254

EPHEMERIS_TYPE = 0
CLASSIFICATION_TYPE = U
NORAD_CAT_ID   = 65732
ELEMENT_SET_NO = 999
REV_AT_EPOCH   = 1358
BSTAR          = .85708712E-3
MEAN_MOTION_DOT = .103156E-2
MEAN_MOTION_DDOT = 0

CCSDS_OMM_VERS = 2.0
CREATION_DATE  = 
ORIGINATOR     = 

OBJECT_NAME    = GHS-01
OBJECT_ID      = 1998-067XM
CENTER_NAME    = EARTH
REF_FRAME      = TEME
TIME_SYSTEM    = UTC
MEAN_ELEMENT_THEORY = SGP/SGP4

EPOCH          = 2025-12-15T17:38:00.008448
MEAN_MOTION    = 15.76152522
ECCENTRICITY   = .00075996
INCLINATION    = 51.6274
RA_OF_ASC_NODE = 119.7831
ARG_OF_PERICENTER = 301.7085
MEAN_ANOMALY   = 58.3173

EPHEMERIS_TYPE = 0
CLASSIFICATION_TYPE = U
NORAD_CAT_ID   = 65733
ELEMENT_SET_NO = 999
REV_AT_EPOCH   = 1365
BSTAR          = .11101643E-2
MEAN_MOTION_DOT = .180872E-2
MEAN_MOTION_DDOT = 0

CCSDS_OMM_VERS = 2.0
CREATION_DATE  = 
ORIGINATOR     = 

OBJECT_NAME    = YOTSUBA-KULOVER
OBJECT_ID      = 1998-067XN
CENTER_NAME    = EARTH
REF_FRAME      = TEME
TIME_SYSTEM    = UTC
MEAN_ELEMENT_THEORY = SGP/SGP4

EPOCH          = 2025-12-16T08:45:11.376000
MEAN_MOTION    = 15.59949944
ECCENTRICITY   = .00014697
INCLINATION    = 51.6282
RA_OF_ASC_NODE = 121.7508
ARG_OF_PERICENTER = 292.0371
MEAN_ANOMALY   = 68.0466

EPHEMERIS_TYPE = 0
CLASSIFICATION_TYPE = U
NORAD_CAT_ID   = 65941
ELEMENT_SET_NO = 999
REV_AT_EPOCH   = 1042
BSTAR          = .68478904E-3
MEAN_MOTION_DOT = .56217E-3
MEAN_MOTION_DDOT = 0

CCSDS_OMM_VERS = 2.0
CREATION_DATE  = 
ORIGINATOR     = 

OBJECT_NAME    = BOTAN
OBJECT_ID      = 1998-067XP
CENTER_NAME    = EARTH
REF_FRAME      = TEME
TIME_SYSTEM    = UTC
MEAN_ELEMENT_THEORY = SGP/SGP4

EPOCH          = 2025-12-16T08:41:17.733120
MEAN_MOTION    = 15.63646784
ECCENTRICITY   = .00028531
INCLINATION    = 51.6278
RA_OF_ASC_NODE = 120.9830
ARG_OF_PERICENTER = 270.5076
MEAN_ANOMALY   = 89.5591

EPHEMERIS_TYPE = 0
CLASSIFICATION_TYPE = U
NORAD_CAT_ID   = 65942
ELEMENT_SET_NO = 999
REV_AT_EPOCH   = 1043
BSTAR          = .94318365E-3
MEAN_MOTION_DOT = .90028E-3
MEAN_MOTION_DDOT = 0

CCSDS_OMM_VERS = 2.0
CREATION_DATE  = 
ORIGINATOR     = 

OBJECT_NAME    = E-KAGAKU-1
OBJECT_ID      = 1998-067XQ
CENTER_NAME    = EARTH
REF_FRAME      = TEME
TIME_SYSTEM    = UTC
MEAN_ELEMENT_THEORY = SGP/SGP4

EPOCH          = 2025-12-15T15:50:32.577792
MEAN_MOTION    = 15.59851021
ECCENTRICITY   = .00016366
INCLINATION    = 51.6292
RA_OF_ASC_NODE = 125.2990
ARG_OF_PERICENTER = 221.4661
MEAN_ANOMALY   = 138.6208

EPHEMERIS_TYPE = 0
CLASSIFICATION_TYPE = U
NORAD_CAT_ID   = 65943
ELEMENT_SET_NO = 999
REV_AT_EPOCH   = 1031
BSTAR          = .6409113E-3
MEAN_MOTION_DOT = .52357E-3
MEAN_MOTION_DDOT = 0

CCSDS_OMM_VERS = 2.0
CREATION_DATE  = 
ORIGINATOR     = 

OBJECT_NAME    = HRC MONOBLOCK CAMERA
OBJECT_ID      = 1998-067XR
CENTER_NAME    = EARTH
REF_FRAME      = TEME
TIME_SYSTEM    = UTC
MEAN_ELEMENT_THEORY = SGP/SGP4

EPOCH          = 2025-12-15T22:19:37.394688
MEAN_MOTION    = 15.54370373
ECCENTRICITY   = .00028854
INCLINATION    = 51.6289
RA_OF_ASC_NODE = 125.5959
ARG_OF_PERICENTER = 198.9504
MEAN_ANOMALY   = 161.1379

EPHEMERIS_TYPE = 0
CLASSIFICATION_TYPE = U
NORAD_CAT_ID   = 66052
ELEMENT_SET_NO = 999
REV_AT_EPOCH   = 933
BSTAR          = .46656817E-3
MEAN_MOTION_DOT = .30802E-3
MEAN_MOTION_DDOT = 0

CCSDS_OMM_VERS = 2.0
CREATION_DATE  = 
ORIGINATOR     = 

OBJECT_NAME    = HTV-X1
OBJECT_ID      = 2025-241A
CENTER_NAME    = EARTH
REF_FRAME      = TEME
TIME_SYSTEM    = UTC
MEAN_ELEMENT_THEORY = SGP/SGP4

EPOCH          = 2025-12-16T02:06:50.626944
MEAN_MOTION    = 15.49613604
ECCENTRICITY   = .00031739
INCLINATION    = 51.6306
RA_OF_ASC_NODE = 125.8981
ARG_OF_PERICENTER = 255.6781
MEAN_ANOMALY   = 104.3856

EPHEMERIS_TYPE = 0
CLASSIFICATION_TYPE = U
NORAD_CAT_ID   = 66174
ELEMENT_SET_NO = 999
REV_AT_EPOCH   = 51
BSTAR          = .12170727E-3
MEAN_MOTION_DOT = .6404E-4
MEAN_MOTION_DDOT = 0

CCSDS_OMM_VERS = 2.0
CREATION_DATE  = 
ORIGINATOR     = 

OBJECT_NAME    = SZ-21 MODULE
OBJECT_ID      = 2025-246C
CENTER_NAME    = EARTH
REF_FRAME      = TEME
TIME_SYSTEM    = UTC
MEAN_ELEMENT_THEORY = SGP/SGP4

EPOCH          = 2025-12-16T01:18:26.404128
MEAN_MOTION    = 15.62659653
ECCENTRICITY   = .00061121
INCLINATION    = 41.4775
RA_OF_ASC_NODE = 355.8239
ARG_OF_PERICENTER = 277.4076
MEAN_ANOMALY   = 82.6069

EPHEMERIS_TYPE = 0
CLASSIFICATION_TYPE = U
NORAD_CAT_ID   = 66515
ELEMENT_SET_NO = 999
REV_AT_EPOCH   = 496
BSTAR          = .24372704E-3
MEAN_MOTION_DOT = .22201E-3
MEAN_MOTION_DDOT = 0

CCSDS_OMM_VERS = 2.0
CREATION_DATE  = 
ORIGINATOR     = 

OBJECT_NAME    = SHENZHOU-22
OBJECT_ID      = 2025-272A
CENTER_NAME    = EARTH
REF_FRAME      = TEME
TIME_SYSTEM    = UTC
MEAN_ELEMENT_THEORY = SGP/SGP4

EPOCH          = 2025-12-16T07:14:05.691264
MEAN_MOTION    = 15.59326293
ECCENTRICITY   = .00078559
INCLINATION    = 41.4684
RA_OF_ASC_NODE = 355.0821
ARG_OF_PERICENTER = 60.8888
MEAN_ANOMALY   = 299.2736

EPHEMERIS_TYPE = 0
CLASSIFICATION_TYPE = U
NORAD_CAT_ID   = 66645
ELEMENT_SET_NO = 999
REV_AT_EPOCH   = 26357
BSTAR          = .21422181E-3
MEAN_MOTION_DOT = .17088E-3
MEAN_MOTION_DDOT = 0

